[{"OBJECT_NAME":"STARLINK-31677","OBJECT_ID":"2024-090V","EPOCH":"2026-03-09T09:44:39.172416","MEAN_MOTION":15.27575537,"ECCENTRICITY":8.716e-5,"INCLINATION":43.0056,"RA_OF_ASC_NODE":185.3642,"ARG_OF_PERICENTER":253.7432,"MEAN_ANOMALY":106.3324,"EPHEMERIS_TYPE":0,"CLASSIFICATION_TYPE":"U","NORAD_CAT_ID":59749,"ELEMENT_SET_NO":999,"REV_AT_EPOCH":10338,"BSTAR":-9.911148e-6,"MEAN_MOTION_DOT":-5.35e-6,"MEAN_MOTION_DDOT":0},{"OBJECT_NAME":"GEOSCAN 5 (RS92S5)","OBJECT_ID":"2025-155R","EPOCH":"2026-03-09T22:01:07.273920","MEAN_MOTION":15.30265233,"ECCENTRICITY":0.00070849,"INCLINATION":97.4462,"RA_OF_ASC_NODE":37.7456,"ARG_OF_PERICENTER":154.5846,"MEAN_ANOMALY":205.5745,"EPHEMERIS_TYPE":0,"CLASSIFICATION_TYPE":"U","NORAD_CAT_ID":64891,"ELEMENT_SET_NO":999,"REV_AT_EPOCH":6562,"BSTAR":0.00068639307,"MEAN_MOTION_DOT":0.00020065,"MEAN_MOTION_DDOT":0}]
